{"type": "FeatureCollection", "features": [{"type": "Feature", "properties": {"norad_id": 25590, "name": "COSMOS 2361", "group": "musson", "lat": 16.967514622781273, "lon": -16.335668253263957, "alt_km": 1000.103151802603, "timestamp": "2025-12-16T05:49:09.484508+00:00", "meta": {"OBJECT_NAME": "COSMOS 2361", "OBJECT_ID": "1998-076A", "EPOCH": "2025-12-15T23:01:27.638688", "MEAN_MOTION": 13.73217889, "ECCENTRICITY": 0.00300759, "INCLINATION": 82.934, "RA_OF_ASC_NODE": 341.7049, "ARG_OF_PERICENTER": 256.2718, "MEAN_ANOMALY": 161.7871, "EPHEMERIS_TYPE": 0, "CLASSIFICATION_TYPE": "U", "NORAD_CAT_ID": 25590, "ELEMENT_SET_NO": 999, "REV_AT_EPOCH": 35155, "BSTAR": 7.1702522e-05, "MEAN_MOTION_DOT": 8.1e-07, "MEAN_MOTION_DDOT": 0}, "tle": {"line1": "1 25590U 98076A   25349.95934767  .00000081  00000+0  71703-4 0  9994", "line2": "2 25590  82.9340 341.7049 0030075 256.2718 161.7871 13.73217889351552"}}, "geometry": {"type": "Point", "coordinates": [-16.335668253263957, 16.967514622781273]}}, {"type": "Feature", "properties": {"norad_id": 26818, "name": "COSMOS 2378", "group": "musson", "lat": 77.08192001235511, "lon": 144.35663760296944, "alt_km": 979.1862591456647, "timestamp": "2025-12-16T05:49:09.484530+00:00", "meta": {"OBJECT_NAME": "COSMOS 2378", "OBJECT_ID": "2001-023A", "EPOCH": "2025-12-15T19:41:11.148288", "MEAN_MOTION": 13.74142207, "ECCENTRICITY": 0.00325815, "INCLINATION": 82.9272, "RA_OF_ASC_NODE": 357.4406, "ARG_OF_PERICENTER": 196.1914, "MEAN_ANOMALY": 337.571, "EPHEMERIS_TYPE": 0, "CLASSIFICATION_TYPE": "U", "NORAD_CAT_ID": 26818, "ELEMENT_SET_NO": 999, "REV_AT_EPOCH": 22965, "BSTAR": 5.1347142e-05, "MEAN_MOTION_DOT": 6.4e-07, "MEAN_MOTION_DDOT": 0}, "tle": {"line1": "1 26818U 01023A   25349.82026792  .00000064  00000+0  51347-4 0  9993", "line2": "2 26818  82.9272 357.4406 0032581 196.1914 337.5710 13.74142207229657"}}, "geometry": {"type": "Point", "coordinates": [144.35663760296944, 77.08192001235511]}}, {"type": "Feature", "properties": {"norad_id": 27436, "name": "COSMOS 2389", "group": "musson", "lat": -39.42409091126967, "lon": -61.44691293070827, "alt_km": 987.9543922547737, "timestamp": "2025-12-16T05:49:09.484544+00:00", "meta": {"OBJECT_NAME": "COSMOS 2389", "OBJECT_ID": "2002-026A", "EPOCH": "2025-12-15T23:20:17.340288", "MEAN_MOTION": 13.75155042, "ECCENTRICITY": 0.004755, "INCLINATION": 82.9505, "RA_OF_ASC_NODE": 304.5915, "ARG_OF_PERICENTER": 51.9667, "MEAN_ANOMALY": 12.754, "EPHEMERIS_TYPE": 0, "CLASSIFICATION_TYPE": "U", "NORAD_CAT_ID": 27436, "ELEMENT_SET_NO": 999, "REV_AT_EPOCH": 18193, "BSTAR": 5.3997368e-05, "MEAN_MOTION_DOT": 6.8e-07, "MEAN_MOTION_DDOT": 0}, "tle": {"line1": "1 27436U 02026A   25349.97242292  .00000068  00000+0  53997-4 0  9992", "line2": "2 27436  82.9505 304.5915 0047550  51.9667  12.7540 13.75155042181939"}}, "geometry": {"type": "Point", "coordinates": [-61.44691293070827, -39.42409091126967]}}, {"type": "Feature", "properties": {"norad_id": 27818, "name": "COSMOS 2398", "group": "musson", "lat": -58.2648361262663, "lon": 101.66195782622331, "alt_km": 1015.5593828830233, "timestamp": "2025-12-16T05:49:09.484555+00:00", "meta": {"OBJECT_NAME": "COSMOS 2398", "OBJECT_ID": "2003-023A", "EPOCH": "2025-12-15T22:00:22.338144", "MEAN_MOTION": 13.72386015, "ECCENTRICITY": 0.0032675, "INCLINATION": 82.9484, "RA_OF_ASC_NODE": 270.3571, "ARG_OF_PERICENTER": 103.2951, "MEAN_ANOMALY": 327.878, "EPHEMERIS_TYPE": 0, "CLASSIFICATION_TYPE": "U", "NORAD_CAT_ID": 27818, "ELEMENT_SET_NO": 999, "REV_AT_EPOCH": 12860, "BSTAR": 3.6432976e-05, "MEAN_MOTION_DOT": 4.9e-07, "MEAN_MOTION_DDOT": 0}, "tle": {"line1": "1 27818U 03023A   25349.91692521  .00000049  00000+0  36433-4 0  9997", "line2": "2 27818  82.9484 270.3571 0032675 103.2951 327.8780 13.72386015128600"}}, "geometry": {"type": "Point", "coordinates": [101.66195782622331, -58.2648361262663]}}, {"type": "Feature", "properties": {"norad_id": 28380, "name": "COSMOS 2407", "group": "musson", "lat": 55.01267191994424, "lon": 20.130349172817127, "alt_km": 965.9980729134331, "timestamp": "2025-12-16T05:49:09.484566+00:00", "meta": {"OBJECT_NAME": "COSMOS 2407", "OBJECT_ID": "2004-028A", "EPOCH": "2025-12-15T20:33:17.368128", "MEAN_MOTION": 13.76313998, "ECCENTRICITY": 0.00402117, "INCLINATION": 82.9602, "RA_OF_ASC_NODE": 210.5852, "ARG_OF_PERICENTER": 46.3771, "MEAN_ANOMALY": 325.9261, "EPHEMERIS_TYPE": 0, "CLASSIFICATION_TYPE": "U", "NORAD_CAT_ID": 28380, "ELEMENT_SET_NO": 999, "REV_AT_EPOCH": 7466, "BSTAR": 6.3752134e-05, "MEAN_MOTION_DOT": 7.8e-07, "MEAN_MOTION_DDOT": 0}, "tle": {"line1": "1 28380U 04028A   25349.85645102  .00000078  00000+0  63752-4 0  9990", "line2": "2 28380  82.9602 210.5852 0040211  46.3771 325.9261 13.76313998 74660"}}, "geometry": {"type": "Point", "coordinates": [20.130349172817127, 55.01267191994424]}}, {"type": "Feature", "properties": {"norad_id": 28521, "name": "COSMOS 2414", "group": "musson", "lat": 6.2674682132491775, "lon": 1.2323067317291272, "alt_km": 916.2682767192728, "timestamp": "2025-12-16T05:49:09.484577+00:00", "meta": {"OBJECT_NAME": "COSMOS 2414", "OBJECT_ID": "2005-002A", "EPOCH": "2025-12-15T22:04:05.071296", "MEAN_MOTION": 13.87903398, "ECCENTRICITY": 0.00410678, "INCLINATION": 82.9489, "RA_OF_ASC_NODE": 182.2554, "ARG_OF_PERICENTER": 130.806, "MEAN_ANOMALY": 229.6678, "EPHEMERIS_TYPE": 0, "CLASSIFICATION_TYPE": "U", "NORAD_CAT_ID": 28521, "ELEMENT_SET_NO": 999, "REV_AT_EPOCH": 5839, "BSTAR": 7.0644113e-05, "MEAN_MOTION_DOT": 1.01e-06, "MEAN_MOTION_DDOT": 0}, "tle": {"line1": "1 28521U 05002A   25349.91950314  .00000101  00000+0  70644-4 0  9996", "line2": "2 28521  82.9489 182.2554 0041067 130.8060 229.6678 13.87903398 58399"}}, "geometry": {"type": "Point", "coordinates": [1.2323067317291272, 6.2674682132491775]}}, {"type": "Feature", "properties": {"norad_id": 32052, "name": "COSMOS 2429", "group": "musson", "lat": 32.6012729589664, "lon": 156.20696440219004, "alt_km": 992.8950317277659, "timestamp": "2025-12-16T05:49:09.484587+00:00", "meta": {"OBJECT_NAME": "COSMOS 2429", "OBJECT_ID": "2007-038A", "EPOCH": "2025-12-15T22:07:28.659072", "MEAN_MOTION": 13.75149724, "ECCENTRICITY": 0.00390712, "INCLINATION": 82.9804, "RA_OF_ASC_NODE": 340.9627, "ARG_OF_PERICENTER": 29.1624, "MEAN_ANOMALY": 331.1702, "EPHEMERIS_TYPE": 0, "CLASSIFICATION_TYPE": "U", "NORAD_CAT_ID": 32052, "ELEMENT_SET_NO": 999, "REV_AT_EPOCH": 91646, "BSTAR": 6.7482628e-05, "MEAN_MOTION_DOT": 8e-07, "MEAN_MOTION_DDOT": 0}, "tle": {"line1": "1 32052U 07038A   25349.92185948  .00000080  00000+0  67483-4 0  9998", "line2": "2 32052  82.9804 340.9627 0039071  29.1624 331.1702 13.75149724916466"}}, "geometry": {"type": "Point", "coordinates": [156.20696440219004, 32.6012729589664]}}, {"type": "Feature", "properties": {"norad_id": 35635, "name": "COSMOS 2454", "group": "musson", "lat": -67.88347878557894, "lon": 3.7035331267800276, "alt_km": 950.9996207866625, "timestamp": "2025-12-16T05:49:09.484598+00:00", "meta": {"OBJECT_NAME": "COSMOS 2454", "OBJECT_ID": "2009-039A", "EPOCH": "2025-12-15T22:15:24.335136", "MEAN_MOTION": 13.89929031, "ECCENTRICITY": 0.00203829, "INCLINATION": 82.9554, "RA_OF_ASC_NODE": 166.2285, "ARG_OF_PERICENTER": 65.2403, "MEAN_ANOMALY": 47.9084, "EPHEMERIS_TYPE": 0, "CLASSIFICATION_TYPE": "U", "NORAD_CAT_ID": 35635, "ELEMENT_SET_NO": 999, "REV_AT_EPOCH": 83194, "BSTAR": 6.0235159e-05, "MEAN_MOTION_DOT": 9e-07, "MEAN_MOTION_DDOT": 0}, "tle": {"line1": "1 35635U 09039A   25349.92736499  .00000090  00000+0  60235-4 0  9993", "line2": "2 35635  82.9554 166.2285 0020382  65.2403  47.9084 13.89929031831944"}}, "geometry": {"type": "Point", "coordinates": [3.7035331267800276, -67.88347878557894]}}, {"type": "Feature", "properties": {"norad_id": 36519, "name": "COSMOS 2463", "group": "musson", "lat": 58.474345368362705, "lon": 35.75842035663263, "alt_km": 1007.9504417646531, "timestamp": "2025-12-16T05:49:09.484608+00:00", "meta": {"OBJECT_NAME": "COSMOS 2463", "OBJECT_ID": "2010-017A", "EPOCH": "2025-12-15T19:52:32.898720", "MEAN_MOTION": 13.71649378, "ECCENTRICITY": 0.00347441, "INCLINATION": 82.961, "RA_OF_ASC_NODE": 24.4431, "ARG_OF_PERICENTER": 279.1449, "MEAN_ANOMALY": 255.1525, "EPHEMERIS_TYPE": 0, "CLASSIFICATION_TYPE": "U", "NORAD_CAT_ID": 36519, "ELEMENT_SET_NO": 999, "REV_AT_EPOCH": 78279, "BSTAR": 5.1047986e-05, "MEAN_MOTION_DOT": 6.1e-07, "MEAN_MOTION_DDOT": 0}, "tle": {"line1": "1 36519U 10017A   25349.82815855  .00000061  00000+0  51048-4 0  9996", "line2": "2 36519  82.9610  24.4431 0034744 279.1449 255.1525 13.71649378782795"}}, "geometry": {"type": "Point", "coordinates": [35.75842035663263, 58.474345368362705]}}]}